NORAD_CAT_ID,OBJECT_NAME,OBJECT_TYPE,EPOCH,MEAN_MOTION,ECCENTRICITY,INCLINATION,RA_OF_ASC_NODE,ARG_OF_PERICENTER,MEAN_ANOMALY,BSTAR,MEAN_MOTION_DOT,MEAN_MOTION_DDOT,TLE_LINE0,TLE_LINE1,TLE_LINE2,SEMIMAJOR_AXIS,PERIOD,APOGEE,PERIGEE,DECAYED
53743.0,STARLINK-4645,PAYLOAD,2022-11-07 22:00:00,15.08822334,0.0001514,53.2148,330.9906,54.2902,168.0173,0.0014717,0.000232,0.0,0 STARLINK-4645,1 53743U 22107AV  22311.91667824  .00023200  00000-0  14717-2 0  9995,2 53743  53.2148 330.9906 0001514  54.2902 168.0173 15.08822334  1306,6917.934,95.439,540.847,538.752,0.0
53743.0,STARLINK-4645,PAYLOAD,2022-11-08 00:00:02,15.08828654,0.0001518,53.2149,330.6163,56.8294,258.4483,0.0035658,0.00056902,0.0,0 STARLINK-4645,1 53743U 22107AV  22312.00002315  .00056902  00000-0  35658-2 0  9996,2 53743  53.2149 330.6163 0001518  56.8294 258.4483 15.08828654  9975,6917.915,95.438,540.83,538.73,0.0
53743.0,STARLINK-4645,PAYLOAD,2022-11-08 14:00:01,15.08881482,0.0001683,53.2146,327.999,49.4216,196.1109,-1.6738999999999996e-06,-3.15e-06,0.0,0 STARLINK-4645,1 53743U 22107AV  22312.58334491 -.00000315  00000-0 -16739-5 0  9993,2 53743  53.2146 327.9990 0001683  49.4216 196.1109 15.08881482 10067,6917.754,95.435,540.783,538.4540000000002,0.0
53743.0,STARLINK-4645,PAYLOAD,2022-11-08 22:00:00,15.08824807,0.0001314,53.2148,326.5008,50.5349,206.6141,0.0017165,0.00027124,0.0,0 STARLINK-4645,1 53743U 22107AV  22312.91667824  .00027124  00000-0  17165-2 0  9995,2 53743  53.2148 326.5008 0001314  50.5349 206.6141 15.08824807 10112,6917.927,95.439,540.701,538.883,0.0
53743.0,STARLINK-4645,PAYLOAD,2022-11-09 14:00:01,15.08842483,0.0001564999999999,53.2145,323.5093,47.6778,232.6497,-0.0012366,-0.00019916,0.0,0 STARLINK-4645,1 53743U 22107AV  22313.58334491 -.00019916  00000-0 -12366-2 0  9990,2 53743  53.2145 323.5093 0001565  47.6778 232.6497 15.08842483  1305,6917.873000000001,95.437,540.82,538.655,0.0
53743.0,STARLINK-4645,PAYLOAD,2022-11-09 22:00:01,15.08788903,0.0001471,53.2146,322.0111,57.0212,234.9682,0.0035569,0.00056696,0.0,0 STARLINK-4645,1 53743U 22107AV  22313.91668981  .00056696  00000-0  35569-2 0  9995,2 53743  53.2146 322.0111 0001471  57.0212 234.9682 15.08788903 10267,6918.0369999999975,95.441,540.919,538.884,0.0
53743.0,STARLINK-4645,PAYLOAD,2022-11-10 14:00:01,15.08812694,0.0001557,53.2149,319.0198,49.1662,265.8846,-8.3546e-05,-1.616e-05,0.0,0 STARLINK-4645,1 53743U 22107AV  22314.58334491 -.00001616  00000-0 -83546-4 0  9999,2 53743  53.2149 319.0198 0001557  49.1662 265.8846 15.08812694  1302,6917.964,95.439,540.906,538.752,0.0
53743.0,STARLINK-4645,PAYLOAD,2022-11-10 16:00:00,15.08822847,0.0001533,53.2152,318.6451,51.5571,356.381,-0.0013233,-0.00021277,0.0,0 STARLINK-4645,1 53743U 22107AV  22314.66667824 -.00021277  00000-0 -13233-2 0  9996,2 53743  53.2152 318.6451 0001533  51.5571 356.3810 15.08822847 10389,6917.933000000001,95.439,540.8580000000002,538.737,0.0
53743.0,STARLINK-4645,PAYLOAD,2022-11-10 22:00:00,15.08792349,0.0001434,53.2156,317.5219,58.2749,268.3444,0.003713,0.00059224,0.0,0 STARLINK-4645,1 53743U 22107AV  22314.91667824  .00059224  00000-0  37130-2 0  9997,2 53743  53.2156 317.5219 0001434  58.2749 268.3444 15.08792349  1304,6918.026,95.441,540.883,538.899,0.0
53743.0,STARLINK-4645,PAYLOAD,2022-11-11 08:00:01,15.08827046,0.0001648,53.2162,315.6533,53.2025,17.878,0.00099116,0.00015516,0.0,0 STARLINK-4645,1 53743U 22107AV  22315.33334491  .00015516  00000-0  99116-3 0  9994,2 53743  53.2162 315.6533 0001648  53.2025  17.8780 15.08827046 10480,6917.92,95.438,540.925,538.645,0.0
53743.0,STARLINK-4645,PAYLOAD,2022-11-11 14:00:01,15.08849684,0.0001609,53.2158,314.5305,50.9838,298.7792,-0.00043981,-7.283e-05,0.0,0 STARLINK-4645,1 53743U 22107AV  22315.58334491 -.00007283  00000-0 -43981-3 0  9994,2 53743  53.2158 314.5305 0001609  50.9838 298.7792 15.08849684  1309,6917.851,95.437,540.8290000000002,538.6030000000002,0.0
53743.0,STARLINK-4645,PAYLOAD,2022-11-11 22:00:00,15.08835236,0.0001489,53.2159,313.0327,59.4719,301.9018,0.0030759,0.00048999,0.0,0 STARLINK-4645,1 53743U 22107AV  22315.91667824  .00048999  00000-0  30759-2 0  9995,2 53743  53.2159 313.0327 0001489  59.4719 301.9018 15.08835236  1313,6917.895,95.438,540.79,538.73,0.0
53743.0,STARLINK-4645,PAYLOAD,2022-11-12 14:00:01,15.08873793,0.0001643,53.2159,310.0411,51.0621,333.5311,-0.0039152,-0.00062119,0.0,0 STARLINK-4645,1 53743U 22107AV  22316.58334491 -.00062119  00000-0 -39152-2 0  9998,2 53743  53.2159 310.0411 0001643  51.0621 333.5311 15.08873793 10672,6917.776999999999,95.435,540.779,538.506,0.0
53743.0,STARLINK-4645,PAYLOAD,2022-11-12 22:00:00,15.08820106,0.0001587,53.216,308.5433,60.0913,336.1137,0.0026481,0.00042086,0.0,0 STARLINK-4645,1 53743U 22107AV  22316.91667824  .00042086  00000-0  26481-2 0  9994,2 53743  53.2160 308.5433 0001587  60.0913 336.1137 15.08820106  1306,6917.941,95.439,540.904,538.7080000000002,0.0
53743.0,STARLINK-4645,PAYLOAD,2022-11-13 06:00:02,15.08839233,0.0001708,53.2162,307.0486,54.2396,353.6213,-0.001671,-0.00026783,0.0,0 STARLINK-4645,1 53743U 22107AV  22317.25002315 -.00026783  00000-0 -16710-2 0  9992,2 53743  53.2162 307.0486 0001708  54.2396 353.6213 15.08839233 10776,6917.8830000000025,95.438,540.929,538.566,0.0
53743.0,STARLINK-4645,PAYLOAD,2022-11-13 14:00:01,15.08854037,0.0001629,53.2163,305.5519,50.0904,9.2853,-0.0037223,-0.00059066,0.0,0 STARLINK-4645,1 53743U 22107AV  22317.58334491 -.00059066  00000-0 -37223-2 0  9993,2 53743  53.2163 305.5519 0001629  50.0904   9.2853 15.08854037  1300,6917.837,95.437,540.8290000000002,538.576,0.0
53743.0,STARLINK-4645,PAYLOAD,2022-11-13 22:00:00,15.08801912,0.0001515,53.2165,304.0542,56.9854,13.981,0.0031551,0.00050231,0.0,0 STARLINK-4645,1 53743U 22107AV  22317.91667824  .00050231  00000-0  31551-2 0  9990,2 53743  53.2165 304.0542 0001515  56.9854  13.9810 15.08801912  1304,6917.996999999999,95.44,540.91,538.814,0.0
53743.0,STARLINK-4645,PAYLOAD,2022-11-14 14:00:01,15.08856955,0.0001692,53.2167,301.0637,51.0832,43.0364,-0.00093712,-0.00015178,0.0,0 STARLINK-4645,1 53743U 22107AV  22318.58334491 -.00015178  00000-0 -93712-3 0  9996,2 53743  53.2167 301.0637 0001692  51.0832  43.0364 15.08856955 10974,6917.829000000002,95.436,540.864,538.523,0.0
53743.0,STARLINK-4645,PAYLOAD,2022-11-14 22:00:00,15.0883384,0.0001612,53.2172,299.5684,59.4777,46.2535,0.0025247,0.00040115,0.0,0 STARLINK-4645,1 53743U 22107AV  22318.91667824  .00040115  00000-0  25247-2 0  9996,2 53743  53.2172 299.5684 0001612  59.4777  46.2535 15.08833840  1305,6917.899,95.438,540.879,538.649,0.0
53743.0,STARLINK-4645,PAYLOAD,2022-11-15 14:00:01,15.0887236,0.0001749,53.2168,296.5737,54.4445,74.4798,-0.0043646,-0.00069146,0.0,0 STARLINK-4645,1 53743U 22107AV  22319.58334491 -.00069146  00000-0 -43646-2 0  9991,2 53743  53.2168 296.5737 0001749  54.4445  74.4798 15.08872360  1308,6917.781,95.436,540.856,538.437,0.0
53743.0,STARLINK-4645,PAYLOAD,2022-11-15 16:00:00,15.08852845,0.000167,53.217,296.1991,56.0373,165.7949,-0.0026611,-0.00042406,0.0,0 STARLINK-4645,1 53743U 22107AV  22319.66667824 -.00042406  00000-0 -26611-2 0  9992,2 53743  53.2170 296.1991 0001670  56.0373 165.7949 15.08852845 11130,6917.840999999999,95.437,540.861,538.5509999999998,0.0
53743.0,STARLINK-4645,PAYLOAD,2022-11-15 22:00:00,15.08822646,0.0001624,53.2171,295.0763,60.6243,79.9043,0.0022895,0.0003632,0.0,0 STARLINK-4645,1 53743U 22107AV  22319.91667824  .00036320  00000-0  22895-2 0  9996,2 53743  53.2171 295.0763 0001624  60.6243  79.9043 15.08822646  1307,6917.933000000001,95.439,540.922,538.675,0.0
53743.0,STARLINK-4645,PAYLOAD,2022-11-16 06:00:00,15.08851959,0.0001756,53.217,293.5831,53.5901,98.5273,-0.0023515,-0.0003753,0.0,0 STARLINK-4645,1 53743U 22107AV  22320.25001157 -.00037530  00000-0 -23515-2 0  9992,2 53743  53.2170 293.5831 0001756  53.5901  98.5273 15.08851959 11226,6917.844,95.437,540.924,538.494,0.0
53743.0,STARLINK-4645,PAYLOAD,2022-11-16 14:00:01,15.08817688,0.000173,53.2169,292.0883,52.075,111.6997,0.0029265,0.00046567,0.0,0 STARLINK-4645,1 53743U 22107AV  22320.58335648  .00046567  00000-0  29265-2 0  9999,2 53743  53.2169 292.0883 0001730  52.0750 111.6997 15.08817688  1302,6917.949000000001,95.439,541.01,538.617,0.0
53743.0,STARLINK-4645,PAYLOAD,2022-11-16 20:00:01,15.08865235,0.0001794,53.2171,290.9668,56.2121,26.1813,-0.001829,-0.00029299,0.0,0 STARLINK-4645,1 53743U 22107AV  22320.83334491 -.00029299  00000-0 -18290-2 0  9993,2 53743  53.2171 290.9668 0001794  56.2121  26.1813 15.08865235 11311,6917.803000000001,95.436,540.909,538.427,0.0
53743.0,STARLINK-4645,PAYLOAD,2022-11-16 22:00:08,15.08878032,0.0001851,53.2173,290.5931,58.5879,117.1444,-0.0038352,-0.00060874,0.0,0 STARLINK-4645,1 53743U 22107AV  22320.91675926 -.00060874  00000-0 -38352-2 0  9998,2 53743  53.2173 290.5931 0001851  58.5879 117.1444 15.08878032  1309,6917.764,95.435,540.91,538.349,0.0
53743.0,STARLINK-4645,PAYLOAD,2022-11-17 14:00:01,15.08864231,0.0001520999999999,53.2162,287.5955,54.0974,144.3899,-0.0035575,-0.00056499,0.0,0 STARLINK-4645,1 53743U 22107AV  22321.58334491 -.00056499  00000-0 -35575-2 0  9993,2 53743  53.2162 287.5955 0001521  54.0974 144.3899 15.08864231  1302,6917.806,95.436,540.724,538.619,0.0
53743.0,STARLINK-4645,PAYLOAD,2022-11-17 22:00:00,15.08834853,0.0001433,53.2163,286.0985,60.5269,149.5557,0.0012469,0.00019609,0.0,0 STARLINK-4645,1 53743U 22107AV  22321.91667824  .00019609  00000-0  12469-2 0  9996,2 53743  53.2163 286.0985 0001433  60.5269 149.5557 15.08834853 11475,6917.896,95.438,540.752,538.77,0.0
53743.0,STARLINK-4645,PAYLOAD,2022-11-18 14:00:01,15.08840961,0.0001413,53.2157,283.1062,52.8031,180.4652,-0.0013095,-0.00021069,0.0,0 STARLINK-4645,1 53743U 22107AV  22322.58334491 -.00021069  00000-0 -13095-2 0  9992,2 53743  53.2157 283.1062 0001413  52.8031 180.4652 15.08840961 11579,6917.877,95.437,540.72,538.765,0.0
